{"type": "FeatureCollection", "features": [ {"type": "Feature", "properties": {"norad_id": 41335, "name": "SENTINEL-3A", "group": "resource", "lat": 62.46627115527088, "lon": 26.619988748130048, "alt_km": 795.8980344374395, "timestamp": "2025-12-04T09:47:37.180007+00:00", "meta": {"OBJECT_NAME": "SENTINEL-3A", "OBJECT_ID": "2016-011A", "EPOCH": "2025-12-04T04:26:47.854176", "MEAN_MOTION": 14.26741561, "ECCENTRICITY": 9.83e-05, "INCLINATION": 98.6218, "RA_OF_ASC_NODE": 43.3206, "ARG_OF_PERICENTER": 91.3246, "MEAN_ANOMALY": 268.8047, "EPHEMERIS_TYPE": 0, "CLASSIFICATION_TYPE": "U", "NORAD_CAT_ID": 41335, "ELEMENT_SET_NO": 999, "REV_AT_EPOCH": 51025, "BSTAR": 0.00014542, "MEAN_MOTION_DOT": 3.08e-06, "MEAN_MOTION_DDOT": 0}, "tle": {"line1": "1 41335U 16011A   25338.18527609  .00000308  00000+0  14542-3 0  9993", "line2": "2 41335  98.6218  43.3206 0000983  91.3246 268.8047 14.26741561510250"}}, "geometry": {"type": "Point", "coordinates": [26.619988748130048, 62.46627115527088]}}, {"type": "Feature", "properties": {"norad_id": 41556, "name": "ZIYUAN 3-2 (ZY 3-2)", "group": "resource", "lat": -40.36409554269548, "lon": -133.63514077927388, "alt_km": 504.3312960818903, "timestamp": "2025-12-04T09:47:37.180039+00:00", "meta": {"OBJECT_NAME": "ZIYUAN 3-2 (ZY 3-2)", "OBJECT_ID": "2016-033A", "EPOCH": "2025-12-03T23:21:13.604832", "MEAN_MOTION": 15.21300557, "ECCENTRICITY": 0.0012461, "INCLINATION": 97.406, "RA_OF_ASC_NODE": 52.2847, "ARG_OF_PERICENTER": 283.3532, "MEAN_ANOMALY": 76.6315, "EPHEMERIS_TYPE": 0, "CLASSIFICATION_TYPE": "U", "NORAD_CAT_ID": 41556, "ELEMENT_SET_NO": 999, "REV_AT_EPOCH": 52830, "BSTAR": 0.00064846727, "MEAN_MOTION_DOT": 0.00014483, "MEAN_MOTION_DDOT": 0}, "tle": {"line1": "1 41556U 16033A   25337.97307413  .00014483  00000+0  64847-3 0  9999", "line2": "2 41556  97.4060  52.2847 0012461 283.3532  76.6315 15.21300557528302"}}, "geometry": {"type": "Point", "coordinates": [-133.63514077927388, -40.36409554269548]}}, {"type": "Feature", "properties": {"norad_id": 41599, "name": "CARTOSAT-2C", "group": "resource", "lat": -49.48536861108188, "lon": -153.09822009284238, "alt_km": 521.1257763419189, "timestamp": "2025-12-04T09:47:37.180050+00:00", "meta": {"OBJECT_NAME": "CARTOSAT-2C", "OBJECT_ID": "2016-040A", "EPOCH": "2025-12-03T23:18:00.789408", "MEAN_MOTION": 15.19153341, "ECCENTRICITY": 0.00109931, "INCLINATION": 97.4779, "RA_OF_ASC_NODE": 35.3112, "ARG_OF_PERICENTER": 91.4922, "MEAN_ANOMALY": 268.7571, "EPHEMERIS_TYPE": 0, "CLASSIFICATION_TYPE": "U", "NORAD_CAT_ID": 41599, "ELEMENT_SET_NO": 999, "REV_AT_EPOCH": 52407, "BSTAR": 3.9901355e-05, "MEAN_MOTION_DOT": 7.71e-06, "MEAN_MOTION_DDOT": 0}, "tle": {"line1": "1 41599U 16040A   25337.97084247  .00000771  00000+0  39901-4 0  9990", "line2": "2 41599  97.4779  35.3112 0010993  91.4922 268.7571 15.19153341524074"}}, "geometry": {"type": "Point", "coordinates": [-153.09822009284238, -49.48536861108188]}}, {"type": "Feature", "properties": {"norad_id": 41601, "name": "SKYSAT-C1", "group": "resource", "lat": -67.78303202553376, "lon": 178.42836446130406, "alt_km": 477.96261915408195, "timestamp": "2025-12-04T09:47:37.180062+00:00", "meta": {"OBJECT_NAME": "SKYSAT-C1", "OBJECT_ID": "2016-040C", "EPOCH": "2025-12-03T20:10:22.997280", "MEAN_MOTION": 15.32337089, "ECCENTRICITY": 0.00032735, "INCLINATION": 96.9836, "RA_OF_ASC_NODE": 15.3577, "ARG_OF_PERICENTER": 37.9507, "MEAN_ANOMALY": 322.1966, "EPHEMERIS_TYPE": 0, "CLASSIFICATION_TYPE": "U", "NORAD_CAT_ID": 41601, "ELEMENT_SET_NO": 999, "REV_AT_EPOCH": 52791, "BSTAR": 0.00054117348, "MEAN_MOTION_DOT": 0.00016845, "MEAN_MOTION_DDOT": 0}, "tle": {"line1": "1 41601U 16040C   25337.84054395  .00016845  00000+0  54117-3 0  9995", "line2": "2 41601  96.9836  15.3577 0003273  37.9507 322.1966 15.32337089527913"}}, "geometry": {"type": "Point", "coordinates": [178.42836446130406, -67.78303202553376]}}, {"type": "Feature", "properties": {"norad_id": 41603, "name": "LAPAN-A3", "group": "resource", "lat": 60.88726340836468, "lon": -36.74390305770292, "alt_km": 461.6067787276288, "timestamp": "2025-12-04T09:47:37.180072+00:00", "meta": {"OBJECT_NAME": "LAPAN-A3", "OBJECT_ID": "2016-040E", "EPOCH": "2025-12-04T04:49:16.328352", "MEAN_MOTION": 15.31446901, "ECCENTRICITY": 0.0010739, "INCLINATION": 97.142, "RA_OF_ASC_NODE": 336.0689, "ARG_OF_PERICENTER": 5.4358, "MEAN_ANOMALY": 354.6998, "EPHEMERIS_TYPE": 0, "CLASSIFICATION_TYPE": "U", "NORAD_CAT_ID": 41603, "ELEMENT_SET_NO": 999, "REV_AT_EPOCH": 52495, "BSTAR": 0.00024834, "MEAN_MOTION_DOT": 7.481e-05, "MEAN_MOTION_DDOT": 0}, "tle": {"line1": "1 41603U 16040E   25338.20088343  .00007481  00000+0  24834-3 0  9997", "line2": "2 41603  97.1420 336.0689 0010739   5.4358 354.6998 15.31446901524952"}}, "geometry": {"type": "Point", "coordinates": [-36.74390305770292, 60.88726340836468]}}, {"type": "Feature", "properties": {"norad_id": 41604, "name": "BIROS", "group": "resource", "lat": -6.4231856648474555, "lon": 10.329315041967961, "alt_km": 318.56457104279525, "timestamp": "2025-12-04T09:47:37.180083+00:00", "meta": {"OBJECT_NAME": "BIROS", "OBJECT_ID": "2016-040F", "EPOCH": "2025-12-04T02:15:02.134944", "MEAN_MOTION": 15.86156799, "ECCENTRICITY": 0.0002783, "INCLINATION": 97.0702, "RA_OF_ASC_NODE": 9.2033, "ARG_OF_PERICENTER": 169.6371, "MEAN_ANOMALY": 190.4958, "EPHEMERIS_TYPE": 0, "CLASSIFICATION_TYPE": "U", "NORAD_CAT_ID": 41604, "ELEMENT_SET_NO": 999, "REV_AT_EPOCH": 52735, "BSTAR": 0.00085334, "MEAN_MOTION_DOT": 0.00215032, "MEAN_MOTION_DDOT": 0}, "tle": {"line1": "1 41604U 16040F   25338.09377471  .00215032  00000+0  85334-3 0  9993", "line2": "2 41604  97.0702   9.2033 0002783 169.6371 190.4958 15.86156799527357"}}, "geometry": {"type": "Point", "coordinates": [10.329315041967961, -6.4231856648474555]}}, {"type": "Feature", "properties": {"norad_id": 41727, "name": "GAOFEN-3", "group": "resource", "lat": -7.727831165509354, "lon": -14.729113259391976, "alt_km": 754.9032384101238, "timestamp": "2025-12-04T09:47:37.180093+00:00", "meta": {"OBJECT_NAME": "GAOFEN-3", "OBJECT_ID": "2016-049A", "EPOCH": "2025-12-04T04:50:04.388352", "MEAN_MOTION": 14.42209872, "ECCENTRICITY": 0.0001581, "INCLINATION": 98.4041, "RA_OF_ASC_NODE": 343.9179, "ARG_OF_PERICENTER": 72.3092, "MEAN_ANOMALY": 287.827, "EPHEMERIS_TYPE": 0, "CLASSIFICATION_TYPE": "U", "NORAD_CAT_ID": 41727, "ELEMENT_SET_NO": 999, "REV_AT_EPOCH": 49054, "BSTAR": 3.7184e-06, "MEAN_MOTION_DOT": -3.1e-07, "MEAN_MOTION_DDOT": 0}, "tle": {"line1": "1 41727U 16049A   25338.20143968 -.00000031  00000+0  37184-5 0  9997", "line2": "2 41727  98.4041 343.9179 0001581  72.3092 287.8270 14.42209872490548"}}, "geometry": {"type": "Point", "coordinates": [-14.729113259391976, -7.727831165509354]}}, {"type": "Feature", "properties": {"norad_id": 41771, "name": "SKYSAT-C4", "group": "resource", "lat": -75.06904256847221, "lon": 156.83152641623653, "alt_km": 448.2831093793666, "timestamp": "2025-12-04T09:47:37.180103+00:00", "meta": {"OBJECT_NAME": "SKYSAT-C4", "OBJECT_ID": "2016-058B", "EPOCH": "2025-12-04T00:53:44.549952", "MEAN_MOTION": 15.41868582, "ECCENTRICITY": 7.61e-05, "INCLINATION": 96.938, "RA_OF_ASC_NODE": 3.6509, "ARG_OF_PERICENTER": 119.4734, "MEAN_ANOMALY": 240.659, "EPHEMERIS_TYPE": 0, "CLASSIFICATION_TYPE": "U", "NORAD_CAT_ID": 41771, "ELEMENT_SET_NO": 999, "REV_AT_EPOCH": 51533, "BSTAR": 0.00060995, "MEAN_MOTION_DOT": 0.00025858, "MEAN_MOTION_DDOT": 0}, "tle": {"line1": "1 41771U 16058B   25338.03732118  .00025858  00000+0  60995-3 0  9995", "line2": "2 41771  96.9380   3.6509 0000761 119.4734 240.6590 15.41868582515334"}}, "geometry": {"type": "Point", "coordinates": [156.83152641623653, -75.06904256847221]}}, {"type": "Feature", "properties": {"norad_id": 41772, "name": "SKYSAT-C5", "group": "resource", "lat": 12.984006633533378, "lon": 20.851235274025235, "alt_km": 461.20352728813396, "timestamp": "2025-12-04T09:47:37.180114+00:00", "meta": {"OBJECT_NAME": "SKYSAT-C5", "OBJECT_ID": "2016-058C", "EPOCH": "2025-12-03T16:31:57.114336", "MEAN_MOTION": 15.35440065, "ECCENTRICITY": 0.0003062, "INCLINATION": 97.0806, "RA_OF_ASC_NODE": 21.8023, "ARG_OF_PERICENTER": 124.5892, "MEAN_ANOMALY": 235.5641, "EPHEMERIS_TYPE": 0, "CLASSIFICATION_TYPE": "U", "NORAD_CAT_ID": 41772, "ELEMENT_SET_NO": 999, "REV_AT_EPOCH": 51377, "BSTAR": 0.0025572, "MEAN_MOTION_DOT": 0.00088899, "MEAN_MOTION_DDOT": 0}, "tle": {"line1": "1 41772U 16058C   25337.68885549  .00088899  00000+0  25572-2 0  9998", "line2": "2 41772  97.0806  21.8023 0003062 124.5892 235.5641 15.35440065513773"}}, "geometry": {"type": "Point", "coordinates": [20.851235274025235, 12.984006633533378]}}, {"type": "Feature", "properties": {"norad_id": 41773, "name": "SKYSAT-C2", "group": "resource", "lat": -30.53376616877765, "lon": 7.468320263308798, "alt_km": 460.8813108721215, "timestamp": "2025-12-04T09:47:37.180129+00:00", "meta": {"OBJECT_NAME": "SKYSAT-C2", "OBJECT_ID": "2016-058D", "EPOCH": "2025-12-04T00:33:07.667424", "MEAN_MOTION": 15.3696681, "ECCENTRICITY": 0.0005047, "INCLINATION": 97.0367, "RA_OF_ASC_NODE": 2.9215, "ARG_OF_PERICENTER": 56.6166, "MEAN_ANOMALY": 303.5562, "EPHEMERIS_TYPE": 0, "CLASSIFICATION_TYPE": "U", "NORAD_CAT_ID": 41773, "ELEMENT_SET_NO": 999, "REV_AT_EPOCH": 51502, "BSTAR": 0.00059242, "MEAN_MOTION_DOT": 0.00021384, "MEAN_MOTION_DDOT": 0}, "tle": {"line1": "1 41773U 16058D   25338.02300541  .00021384  00000+0  59242-3 0  9990", "line2": "2 41773  97.0367   2.9215 0005047  56.6166 303.5562 15.36966810515023"}}, "geometry": {"type": "Point", "coordinates": [7.468320263308798, -30.53376616877765]}}]}